{
    "links": {
        "self": "http://www.neowsapp.com/rest/v1/neo/3249181?api_key=iIulBulltgU6a56xZRHN4H3l9WmuAYTsLGpBGhQ2"
    },
    "id": "3249181",
    "neo_reference_id": "3249181",
    "name": "(2004 PZ19)",
    "designation": "2004 PZ19",
    "nasa_jpl_url": "http://ssd.jpl.nasa.gov/sbdb.cgi?sstr=3249181",
    "absolute_magnitude_h": 24.5,
    "estimated_diameter": {
        "kilometers": {
            "estimated_diameter_min": 0.0334622374,
            "estimated_diameter_max": 0.0748238376
        },
        "meters": {
            "estimated_diameter_min": 33.4622374455,
            "estimated_diameter_max": 74.8238376074
        },
        "miles": {
            "estimated_diameter_min": 0.0207924639,
            "estimated_diameter_max": 0.0464933628
        },
        "feet": {
            "estimated_diameter_min": 109.7842471007,
            "estimated_diameter_max": 245.4850393757
        }
    },
    "is_potentially_hazardous_asteroid": false,
    "close_approach_data": [
        {
            "close_approach_date": "1981-12-05",
            "close_approach_date_full": "1981-Dec-05 10:25",
            "epoch_date_close_approach": 376395900000,
            "relative_velocity": {
                "kilometers_per_second": "23.7969654215",
                "kilometers_per_hour": "85669.0755172445",
                "miles_per_hour": "53231.4319512567"
            },
            "miss_distance": {
                "astronomical": "0.4488149302",
                "lunar": "174.5890078478",
                "kilometers": "67141757.582118674",
                "miles": "41719953.5815747412"
            },
            "orbiting_body": "Earth"
        },
        {
            "close_approach_date": "2004-08-11",
            "close_approach_date_full": "2004-Aug-11 20:07",
            "epoch_date_close_approach": 1092254820000,
            "relative_velocity": {
                "kilometers_per_second": "11.3673186884",
                "kilometers_per_hour": "40922.3472783484",
                "miles_per_hour": "25427.5551741493"
            },
            "miss_distance": {
                "astronomical": "0.0041060207",
                "lunar": "1.5972420523",
                "kilometers": "614251.950895909",
                "miles": "381678.4636211842"
            },
            "orbiting_body": "Earth"
        },
        {
            "close_approach_date": "2004-08-12",
            "close_approach_date_full": "2004-Aug-12 06:14",
            "epoch_date_close_approach": 1092291240000,
            "relative_velocity": {
                "kilometers_per_second": "11.2563639425",
                "kilometers_per_hour": "40522.910193095",
                "miles_per_hour": "25179.3605030373"
            },
            "miss_distance": {
                "astronomical": "0.0049539481",
                "lunar": "1.9270858109",
                "kilometers": "741100.083850547",
                "miles": "460498.2385176686"
            },
            "orbiting_body": "Moon"
        }
    ],
    "orbital_data": {
        "orbit_id": "9",
        "orbit_determination_date": "2017-04-06 09:12:31",
        "first_observation_date": "2004-08-09",
        "last_observation_date": "2004-08-10",
        "data_arc_in_days": 1,
        "observations_used": 104,
        "orbit_uncertainty": "7",
        "minimum_orbit_intersection": ".00221925",
        "jupiter_tisserand_invariant": "3.589",
        "epoch_osculation": "2459000.5",
        "eccentricity": ".5495121995986909",
        "semi_major_axis": "2.040703508384769",
        "inclination": "6.88130806787585",
        "ascending_node_longitude": "138.6233751107539",
        "orbital_period": "1064.800615610742",
        "perihelion_distance": ".919312034763489",
        "perihelion_argument": "223.4338666410798",
        "aphelion_distance": "3.162094982006049",
        "perihelion_time": "2458584.255384228765",
        "mean_anomaly": "140.7287519191522",
        "mean_motion": ".3380914649392022",
        "equinox": "J2000",
        "orbit_class": {
            "orbit_class_type": "APO",
            "orbit_class_description": "Near-Earth asteroid orbits which cross the Earth’s orbit similar to that of 1862 Apollo",
            "orbit_class_range": "a (semi-major axis) > 1.0 AU; q (perihelion) < 1.017 AU"
        }
    },
    "is_sentry_object": false
}